     3.02           N: GNSS NAV DATA    G: GPS              RINEX VERSION / TYPE
Spider v7.5.1.8670  SMO                 20220121 002545 UTC PGM / RUN BY / DATE
GPSA   1.1176D-08 -7.4506D-09 -5.9605D-08  1.1921D-07       IONOSPHERIC CORR
GPSB   1.1469D+05 -1.6384D+05 -1.9661D+05  9.1750D+05       IONOSPHERIC CORR
GPUT -2.7939677238D-09-7.105427358D-15 589824 2193          TIME SYSTEM CORR
    18    18  2185     7                                    LEAP SECONDS
                                                            END OF HEADER
G29 2022 01 20 20 00 00-4.698401317000D-04-4.888534022029D-12 0.000000000000D+00
     2.100000000000D+01 9.400000000000D+01 3.710868945461D-09 3.302042556355D-01
     4.740431904793D-06 1.778915291652D-03 1.122802495956D-05 5.153769136429D+03
     4.176000000000D+05-9.313225746155D-09-2.396727478028D+00-3.911554813385D-08
     9.822955114766D-01 1.736875000000D+02 2.282740225042D+00-7.637461330035D-09
    -1.289339468524D-10 1.000000000000D+00 2.193000000000D+03 0.000000000000D+00
     2.000000000000D+00 0.000000000000D+00-1.024454832077D-08 2.100000000000D+01
     4.103400000000D+05                   
G25 2022 01 20 20 00 00 2.737711183727D-04 5.570655048359D-12 0.000000000000D+00
     8.700000000000D+01-2.337500000000D+01 4.759483918093D-09 2.714952555826D+00
    -1.357868313789D-06 1.039217796642D-02 7.705762982368D-06 5.153718076706D+03
     4.176000000000D+05-1.862645149231D-09 2.760303377624D+00-1.545995473862D-07
     9.582007386898D-01 2.266250000000D+02 9.728523708862D-01-7.919615185870D-09
    -5.557374560539D-10 1.000000000000D+00 2.193000000000D+03 0.000000000000D+00
     2.000000000000D+00 0.000000000000D+00 5.587935447693D-09 8.700000000000D+01
     4.103400000000D+05                   
G06 2022 01 20 20 00 00 1.766788773239D-04 1.114131009672D-11 0.000000000000D+00
     5.600000000000D+01 6.996875000000D+01 4.149101506812D-09-1.644186391786D+00
     3.684312105179D-06 2.648404333740D-03 2.752989530563D-06 5.153651586533D+03
     4.176000000000D+05 4.842877388000D-08-1.419933856619D+00 4.097819328308D-08
     9.857925235183D-01 3.429687500000D+02-9.943010730422D-01-8.169268816971D-09
     2.253665309926D-10 1.000000000000D+00 2.193000000000D+03 0.000000000000D+00
     2.000000000000D+00 0.000000000000D+00 4.190951585770D-09 5.600000000000D+01
     4.103400000000D+05                   
G02 2022 01 20 20 00 00-6.491118110716D-04-9.094947017729D-13 0.000000000000D+00
     4.800000000000D+01 9.112500000000D+01 4.467328729163D-09-1.847847241706D+00
     5.107372999191D-06 2.069375407882D-02 2.412125468254D-06 5.153680057526D+03
     4.176000000000D+05 2.365559339523D-07-1.500435188337D+00 4.302710294724D-07
     9.647638895113D-01 3.384062500000D+02-1.454361192004D+00-8.224628089692D-09
     1.992940118489D-10 1.000000000000D+00 2.193000000000D+03 0.000000000000D+00
     2.000000000000D+00 0.000000000000D+00-1.769512891769D-08 4.800000000000D+01
     4.103400000000D+05                   
G12 2022 01 20 20 00 00-1.587662845850D-04-5.684341886081D-12 0.000000000000D+00
     6.400000000000D+01-2.000000000000D+01 4.453042823371D-09 2.950336238627D+00
    -1.052394509315D-06 8.596823667176D-03 8.225440979004D-06 5.153613517761D+03
     4.176000000000D+05 9.685754776001D-08 2.836684194300D+00-1.657754182816D-07
     9.708355627637D-01 2.213125000000D+02 1.238250370875D+00-7.797110512797D-09
    -6.003821328981D-10 1.000000000000D+00 2.193000000000D+03 0.000000000000D+00
     2.000000000000D+00 0.000000000000D+00-1.257285475731D-08 6.400000000000D+01
     4.103400000000D+05                   
G15 2022 01 20 20 00 00-9.004818275571D-05 2.842170943040D-12 0.000000000000D+00
     3.900000000000D+01-6.543750000000D+01 5.005565739680D-09-7.248489042721D-01
    -3.173947334290D-06 1.392681652214D-02 1.160055398941D-05 5.153734857559D+03
     4.176000000000D+05-3.539025783539D-08 5.466140489435D-01 2.421438694000D-07
     9.301294063889D-01 1.403750000000D+02 1.070888341106D+00-8.391420891485D-09
     2.707255530865D-10 1.000000000000D+00 2.193000000000D+03 0.000000000000D+00
     2.000000000000D+00 0.000000000000D+00-1.071020960808D-08 3.900000000000D+01
     4.103400000000D+05                   
G09 2022 01 20 20 00 00-3.572660498321D-04 1.250555214938D-12 0.000000000000D+00
     8.300000000000D+01-4.040625000000D+01 4.418041044119D-09 6.235637959236D-01
    -2.177432179451D-06 2.324128407054D-03 1.111812889576D-05 5.153640245438D+03
     4.176000000000D+05-3.725290298462D-09 6.519577601776D-01-2.421438694000D-08
     9.542319209383D-01 1.589687500000D+02 1.859163994146D+00-7.923901534923D-09
     3.307280560527D-10 1.000000000000D+00 2.193000000000D+03 0.000000000000D+00
     2.000000000000D+00 0.000000000000D+00 1.396983861923D-09 8.300000000000D+01
     4.103400000000D+05                   
G05 2022 01 20 20 00 00-6.858119741082D-05-1.364242052659D-12 0.000000000000D+00
     4.400000000000D+01-1.085625000000D+02 4.587334068162D-09 6.407275466570D-01
    -5.513429641724D-06 5.892652901821D-03 4.410743713379D-06 5.153654623032D+03
     4.176000000000D+05-1.303851604462D-07-4.161067642884D-01 3.166496753693D-08
     9.594813581584D-01 2.954062500000D+02 1.011630794757D+00-8.383206129281D-09
    -2.882263039350D-10 1.000000000000D+00 2.193000000000D+03 0.000000000000D+00
     2.000000000000D+00 0.000000000000D+00-1.117587089539D-08 4.400000000000D+01
     4.103400000000D+05                   
G13 2022 01 20 19 59 44 2.485010772943D-04 6.025402399246D-12 0.000000000000D+00
     3.000000000000D+00-3.015625000000D+01 4.180173984736D-09-3.251645716096D-01
    -1.536682248116D-06 5.801163730212D-03 1.179054379463D-05 5.153681827545D+03
     4.175840000000D+05-1.862645149231D-09 8.043650016252D-01 8.195638656616D-08
     9.685995480705D-01 1.584375000000D+02 9.690648159993D-01-7.841040705614D-09
     4.585905266641D-10 1.000000000000D+00 2.193000000000D+03 0.000000000000D+00
     2.000000000000D+00 0.000000000000D+00-1.117587089539D-08 3.000000000000D+00
     4.103100000000D+05                   
G30 2022 01 20 19 59 44-5.080760456622D-04-2.614797267597D-12 0.000000000000D+00
     1.000000000000D+01 2.937500000000D+01 5.531301638939D-09-2.654825745017D+00
     1.432374119759D-06 5.423833616078D-03 5.869194865227D-06 5.153582227707D+03
     4.175840000000D+05-2.048909664154D-08 1.737605127760D+00-7.450580596924D-08
     9.357051533383D-01 2.574062500000D+02-2.751096366641D+00-8.427494258001D-09
     3.914448765130D-10 1.000000000000D+00 2.193000000000D+03 0.000000000000D+00
     2.000000000000D+00 0.000000000000D+00 3.725290298462D-09 1.000000000000D+01
     4.103100000000D+05                   
G18 2022 01 20 20 00 00 2.569658681750D-04-7.503331289627D-12 0.000000000000D+00
     1.180000000000D+02 7.175000000000D+01 4.408755138741D-09-1.820486906610D+00
     3.639608621597D-06 2.090191934258D-03 2.849847078323D-06 5.153626071930D+03
     4.176000000000D+05-5.029141902924D-08-1.403457481352D+00-2.607703208923D-08
     9.701999029145D-01 3.304062500000D+02 3.111895678443D+00-8.276058949264D-09
     2.410814603504D-10 1.000000000000D+00 2.193000000000D+03 0.000000000000D+00
     2.000000000000D+00 0.000000000000D+00-8.381903171539D-09 1.180000000000D+02
     4.103400000000D+05                   
G24 2022 01 20 19 59 44 2.770274877548D-04-4.547473508865D-13 0.000000000000D+00
     5.000000000000D+00 2.931250000000D+01 5.494514621063D-09-1.705816345069D+00
     1.449137926102D-06 1.229524693917D-02 6.010755896568D-06 5.153690427780D+03
     4.175840000000D+05 2.197921276093D-07 1.641720554125D+00-1.080334186554D-07
     9.340180942655D-01 2.457187500000D+02 8.020308763310D-01-8.344633428692D-09
     5.718095441587D-10 1.000000000000D+00 2.193000000000D+03 0.000000000000D+00
     2.000000000000D+00 0.000000000000D+00 2.328306436539D-09 5.000000000000D+00
     4.103100000000D+05                   
G20 2022 01 20 22 00 00 5.170824006200D-04-2.273736754432D-13 0.000000000000D+00
     1.200000000000D+01-8.765625000000D+01 5.140571079920D-09 9.468643641300D-02
    -4.522502422333D-06 5.266108550131D-03 3.265216946602D-06 5.153728883743D+03
     4.248000000000D+05 8.940696716309D-08-5.297023941052D-01-2.607703208923D-08
     9.415959177523D-01 3.068750000000D+02 3.108086489924D+00-8.668218143271D-09
    -2.189376874240D-10 1.000000000000D+00 2.193000000000D+03 0.000000000000D+00
     2.000000000000D+00 0.000000000000D+00-8.381903171539D-09 1.200000000000D+01
     4.175400000000D+05                   
G13 2022 01 20 21 59 44 2.485448494554D-04 6.025402399246D-12 0.000000000000D+00
     2.500000000000D+01-2.637500000000D+01 4.121600394313D-09 7.250853293887D-01
    -1.480802893639D-06 5.801120889373D-03 1.141615211964D-05 5.153681579590D+03
     4.247840000000D+05-9.499490261078D-08 8.043091225434D-01 1.676380634308D-08
     9.686026816410D-01 1.636562500000D+02 9.689874510396D-01-7.805682322726D-09
     3.732298359260D-10 1.000000000000D+00 2.193000000000D+03 0.000000000000D+00
     2.000000000000D+00 0.000000000000D+00-1.117587089539D-08 2.500000000000D+01
     4.175100000000D+05                   
G29 2022 01 20 22 00 00-4.698750562966D-04-4.888534022029D-12 0.000000000000D+00
     2.200000000000D+01 9.815625000000D+01 3.736941422972D-09 1.380006809451D+00
     4.943460226059D-06 1.779028913006D-03 1.086480915546D-05 5.153770067215D+03
     4.248000000000D+05-1.862645149231D-09-2.396782442786D+00-3.911554813385D-08
     9.822946132449D-01 1.773437500000D+02 2.283054595896D+00-7.630674758730D-09
    -1.296482643465D-10 1.000000000000D+00 2.193000000000D+03 0.000000000000D+00
     2.000000000000D+00 0.000000000000D+00-1.024454832077D-08 2.200000000000D+01
     4.175400000000D+05                   
